{
  "type": "FeatureCollection",
  "name": "locks-rws",
  "groundTruth": true,
  "crs": {
    "type": "name",
    "properties": {
      "name": "urn:ogc:def:crs:OGC:1.3:CRS84"
    }
  },
  "source": {
    "name": "Rijkswaterstaat Vaarwegen (FIS/VNDS) OGC API Features",
    "url": "https://geo.rijkswaterstaat.nl/services/ogc/gdr/fis_vnds/ogc/features/v1",
    "license": "Rijkswaterstaat open data (publieke OGC API)",
    "retrievedAt": "2026-09-14T08:58:37Z",
    "note": "Collections sluis_v, sluiskolk_v, brug, isrs_object. Polygon/point geometry as published; attributes length/width used where present."
  },
  "generatedAt": "2026-09-14T08:58:37Z",
  "featureCount": 3,
  "features": [
    {
      "type": "Feature",
      "properties": {
        "id": "westsluis",
        "officialName": "Westsluis Terneuzen",
        "kind": "lock",
        "operational": true,
        "condition": "CONSTRUCTED",
        "numberOfChambers": 1,
        "lengthM_attr": null,
        "widthM_attr": null,
        "rotation": 142,
        "rwsId": 7960,
        "isrsId": 9064445,
        "vinCode": "9564",
        "address": "Buitenhaven",
        "relatedComplex": "Terneuzen",
        "centroid": {
          "lng": 3.816785,
          "lat": 51.328699
        },
        "rwsCollection": "sluis_v",
        "_source": "rws_fis",
        "_retrievedAt": "2026-09-14T08:58:37Z"
      },
      "geometry": {
        "type": "Polygon",
        "coordinates": [
          [
            [
              3.8164,
              51.3297
            ],
            [
              3.8164,
              51.3296
            ],
            [
              3.8164,
              51.3296
            ],
            [
              3.8165,
              51.3296
            ],
            [
              3.8164,
              51.3296
            ],
            [
              3.8165,
              51.3295
            ],
            [
              3.8166,
              51.3294
            ],
            [
              3.8169,
              51.329
            ],
            [
              3.8172,
              51.3287
            ],
            [
              3.8174,
              51.3284
            ],
            [
              3.8175,
              51.3282
            ],
            [
              3.8175,
              51.3282
            ],
            [
              3.8176,
              51.3281
            ],
            [
              3.8176,
              51.3281
            ],
            [
              3.8179,
              51.3277
            ],
            [
              3.8181,
              51.3274
            ],
            [
              3.8183,
              51.3272
            ],
            [
              3.8183,
              51.3272
            ],
            [
              3.8184,
              51.3272
            ],
            [
              3.8184,
              51.3272
            ],
            [
              3.8184,
              51.3272
            ],
            [
              3.8184,
              51.3271
            ],
            [
              3.8179,
              51.3269
            ],
            [
              3.8179,
              51.3269
            ],
            [
              3.8178,
              51.327
            ],
            [
              3.8178,
              51.327
            ],
            [
              3.8178,
              51.327
            ],
            [
              3.8177,
              51.3271
            ],
            [
              3.8178,
              51.3271
            ],
            [
              3.8178,
              51.3271
            ],
            [
              3.8177,
              51.3272
            ],
            [
              3.8175,
              51.3274
            ],
            [
              3.8173,
              51.3277
            ],
            [
              3.8171,
              51.328
            ],
            [
              3.8171,
              51.328
            ],
            [
              3.817,
              51.328
            ],
            [
              3.817,
              51.328
            ],
            [
              3.817,
              51.328
            ],
            [
              3.817,
              51.3281
            ],
            [
              3.8168,
              51.3283
            ],
            [
              3.8166,
              51.3286
            ],
            [
              3.8163,
              51.329
            ],
            [
              3.816,
              51.3293
            ],
            [
              3.8159,
              51.3294
            ],
            [
              3.8159,
              51.3294
            ],
            [
              3.8159,
              51.3294
            ],
            [
              3.8159,
              51.3294
            ],
            [
              3.8158,
              51.3295
            ],
            [
              3.8159,
              51.3295
            ],
            [
              3.8159,
              51.3295
            ],
            [
              3.8158,
              51.3295
            ],
            [
              3.8158,
              51.3295
            ],
            [
              3.8158,
              51.3296
            ],
            [
              3.8158,
              51.3296
            ],
            [
              3.8158,
              51.3296
            ],
            [
              3.8158,
              51.3296
            ],
            [
              3.8157,
              51.3297
            ],
            [
              3.8157,
              51.3297
            ],
            [
              3.8157,
              51.3297
            ],
            [
              3.8157,
              51.3297
            ],
            [
              3.8157,
              51.3298
            ],
            [
              3.8156,
              51.3298
            ],
            [
              3.8162,
              51.3299
            ],
            [
              3.8162,
              51.3299
            ],
            [
              3.8162,
              51.3298
            ],
            [
              3.8163,
              51.3298
            ],
            [
              3.8163,
              51.3298
            ],
            [
              3.8163,
              51.3298
            ],
            [
              3.8163,
              51.3297
            ],
            [
              3.8163,
              51.3297
            ],
            [
              3.8163,
              51.3297
            ],
            [
              3.8164,
              51.3297
            ],
            [
              3.8164,
              51.3297
            ]
          ]
        ]
      }
    },
    {
      "type": "Feature",
      "properties": {
        "id": "oostsluis",
        "officialName": "Oostsluis Terneuzen",
        "kind": "lock",
        "operational": true,
        "condition": "CONSTRUCTED",
        "numberOfChambers": 1,
        "lengthM_attr": null,
        "widthM_attr": null,
        "rotation": 166,
        "rwsId": 12444,
        "isrsId": 9064501,
        "vinCode": "9484",
        "address": "Buitenhaven",
        "relatedComplex": "Noordzeesluizen",
        "centroid": {
          "lng": 3.82002,
          "lat": 51.334982
        },
        "rwsCollection": "sluis_v",
        "_source": "rws_fis",
        "_retrievedAt": "2026-09-14T08:58:37Z"
      },
      "geometry": {
        "type": "Polygon",
        "coordinates": [
          [
            [
              3.82,
              51.3359
            ],
            [
              3.82,
              51.3359
            ],
            [
              3.82,
              51.3359
            ],
            [
              3.82,
              51.3359
            ],
            [
              3.82,
              51.3359
            ],
            [
              3.82,
              51.3359
            ],
            [
              3.82,
              51.3359
            ],
            [
              3.82,
              51.3359
            ],
            [
              3.82,
              51.3359
            ],
            [
              3.82,
              51.3359
            ],
            [
              3.82,
              51.3359
            ],
            [
              3.82,
              51.3358
            ],
            [
              3.82,
              51.3358
            ],
            [
              3.82,
              51.3358
            ],
            [
              3.82,
              51.3358
            ],
            [
              3.82,
              51.3357
            ],
            [
              3.8201,
              51.3355
            ],
            [
              3.8201,
              51.3353
            ],
            [
              3.8202,
              51.3351
            ],
            [
              3.8202,
              51.335
            ],
            [
              3.8202,
              51.335
            ],
            [
              3.8202,
              51.3349
            ],
            [
              3.8202,
              51.3349
            ],
            [
              3.8202,
              51.3349
            ],
            [
              3.8202,
              51.3349
            ],
            [
              3.8202,
              51.3349
            ],
            [
              3.8202,
              51.3349
            ],
            [
              3.8202,
              51.3349
            ],
            [
              3.8202,
              51.3349
            ],
            [
              3.8202,
              51.3349
            ],
            [
              3.8202,
              51.3349
            ],
            [
              3.8202,
              51.3349
            ],
            [
              3.8202,
              51.3349
            ],
            [
              3.8202,
              51.3349
            ],
            [
              3.8202,
              51.3349
            ],
            [
              3.8202,
              51.3349
            ],
            [
              3.8202,
              51.3349
            ],
            [
              3.8202,
              51.3349
            ],
            [
              3.8203,
              51.3349
            ],
            [
              3.8203,
              51.3349
            ],
            [
              3.8203,
              51.3349
            ],
            [
              3.8203,
              51.3349
            ],
            [
              3.8203,
              51.3348
            ],
            [
              3.8203,
              51.3348
            ],
            [
              3.8203,
              51.3348
            ],
            [
              3.8203,
              51.3347
            ],
            [
              3.8203,
              51.3347
            ],
            [
              3.8203,
              51.3346
            ],
            [
              3.8203,
              51.3344
            ],
            [
              3.8204,
              51.3342
            ],
            [
              3.8204,
              51.334
            ],
            [
              3.8205,
              51.3338
            ],
            [
              3.8205,
              51.3336
            ],
            [
              3.8206,
              51.3335
            ],
            [
              3.8206,
              51.3335
            ],
            [
              3.8206,
              51.3335
            ],
            [
              3.8206,
              51.3334
            ],
            [
              3.8206,
              51.3334
            ],
            [
              3.8206,
              51.3334
            ],
            [
              3.8206,
              51.3334
            ],
            [
              3.8206,
              51.3334
            ],
            [
              3.8206,
              51.3333
            ],
            [
              3.8206,
              51.3333
            ],
            [
              3.8206,
              51.3333
            ],
            [
              3.8206,
              51.3333
            ],
            [
              3.8206,
              51.3333
            ],
            [
              3.8206,
              51.3333
            ],
            [
              3.8204,
              51.3332
            ],
            [
              3.8204,
              51.3332
            ],
            [
              3.8202,
              51.3333
            ],
            [
              3.8203,
              51.3333
            ],
            [
              3.8203,
              51.3333
            ],
            [
              3.8203,
              51.3333
            ],
            [
              3.8203,
              51.3333
            ],
            [
              3.8202,
              51.3333
            ],
            [
              3.8202,
              51.3333
            ],
            [
              3.8202,
              51.3333
            ],
            [
              3.8202,
              51.3333
            ],
            [
              3.8202,
              51.3333
            ],
            [
              3.8202,
              51.3333
            ],
            [
              3.8202,
              51.3333
            ],
            [
              3.8202,
              51.3333
            ],
            [
              3.8202,
              51.3335
            ],
            [
              3.8202,
              51.3335
            ],
            [
              3.8202,
              51.3335
            ],
            [
              3.8202,
              51.3335
            ],
            [
              3.8202,
              51.3335
            ],
            [
              3.8202,
              51.3336
            ],
            [
              3.8202,
              51.3337
            ],
            [
              3.8201,
              51.3339
            ],
            [
              3.8201,
              51.3339
            ],
            [
              3.8201,
              51.3341
            ],
            [
              3.82,
              51.3344
            ],
            [
              3.8199,
              51.3346
            ],
            [
              3.8199,
              51.3347
            ],
            [
              3.8199,
              51.3347
            ],
            [
              3.8199,
              51.3347
            ],
            [
              3.8199,
              51.3347
            ],
            [
              3.8199,
              51.3348
            ],
            [
              3.8199,
              51.3348
            ],
            [
              3.8199,
              51.3348
            ],
            [
              3.8199,
              51.3348
            ],
            [
              3.8199,
              51.3348
            ],
            [
              3.8199,
              51.3348
            ],
            [
              3.8199,
              51.3348
            ],
            [
              3.8199,
              51.3348
            ],
            [
              3.8199,
              51.3348
            ],
            [
              3.8199,
              51.3348
            ],
            [
              3.8199,
              51.3348
            ],
            [
              3.8199,
              51.3349
            ],
            [
              3.8199,
              51.3349
            ],
            [
              3.8199,
              51.3349
            ],
            [
              3.8199,
              51.3349
            ],
            [
              3.8199,
              51.3349
            ],
            [
              3.8199,
              51.3349
            ],
            [
              3.8199,
              51.3349
            ],
            [
              3.8199,
              51.3349
            ],
            [
              3.8199,
              51.3349
            ],
            [
              3.8199,
              51.3349
            ],
            [
              3.8199,
              51.3349
            ],
            [
              3.8199,
              51.3349
            ],
            [
              3.8198,
              51.335
            ],
            [
              3.8198,
              51.335
            ],
            [
              3.8198,
              51.335
            ],
            [
              3.8198,
              51.335
            ],
            [
              3.8198,
              51.3352
            ],
            [
              3.8198,
              51.3354
            ],
            [
              3.8197,
              51.3356
            ],
            [
              3.8197,
              51.3358
            ],
            [
              3.8197,
              51.3358
            ],
            [
              3.8197,
              51.3358
            ],
            [
              3.8197,
              51.3358
            ],
            [
              3.8196,
              51.3358
            ],
            [
              3.8196,
              51.3359
            ],
            [
              3.8196,
              51.3359
            ],
            [
              3.8196,
              51.3359
            ],
            [
              3.8196,
              51.3359
            ],
            [
              3.8196,
              51.3359
            ],
            [
              3.8196,
              51.3359
            ],
            [
              3.8196,
              51.3359
            ],
            [
              3.8196,
              51.3359
            ],
            [
              3.8196,
              51.3359
            ],
            [
              3.8196,
              51.3359
            ],
            [
              3.8196,
              51.3359
            ],
            [
              3.8196,
              51.3359
            ],
            [
              3.8196,
              51.3359
            ],
            [
              3.8196,
              51.3359
            ],
            [
              3.8196,
              51.3359
            ],
            [
              3.8196,
              51.3359
            ],
            [
              3.8196,
              51.336
            ],
            [
              3.8196,
              51.336
            ],
            [
              3.8196,
              51.336
            ],
            [
              3.8196,
              51.336
            ],
            [
              3.8196,
              51.3361
            ],
            [
              3.8196,
              51.3361
            ],
            [
              3.8196,
              51.3361
            ],
            [
              3.8196,
              51.3361
            ],
            [
              3.8196,
              51.3361
            ],
            [
              3.8196,
              51.3361
            ],
            [
              3.8196,
              51.3361
            ],
            [
              3.8196,
              51.3361
            ],
            [
              3.8196,
              51.3361
            ],
            [
              3.8196,
              51.3361
            ],
            [
              3.8196,
              51.3361
            ],
            [
              3.8198,
              51.3362
            ],
            [
              3.8199,
              51.3362
            ],
            [
              3.8199,
              51.3362
            ],
            [
              3.8199,
              51.3362
            ],
            [
              3.8199,
              51.3361
            ],
            [
              3.8199,
              51.3361
            ],
            [
              3.8199,
              51.3361
            ],
            [
              3.8199,
              51.3361
            ],
            [
              3.8199,
              51.3361
            ],
            [
              3.8199,
              51.3361
            ],
            [
              3.8199,
              51.3361
            ],
            [
              3.82,
              51.336
            ],
            [
              3.82,
              51.336
            ],
            [
              3.82,
              51.336
            ],
            [
              3.82,
              51.336
            ],
            [
              3.82,
              51.336
            ],
            [
              3.82,
              51.336
            ],
            [
              3.82,
              51.336
            ],
            [
              3.82,
              51.3359
            ],
            [
              3.82,
              51.3359
            ],
            [
              3.82,
              51.3359
            ]
          ]
        ]
      }
    },
    {
      "type": "Feature",
      "properties": {
        "id": "nieuwe-sluis",
        "officialName": "Nieuwe Sluis Terneuzen",
        "kind": "lock",
        "operational": true,
        "condition": "CONSTRUCTED",
        "numberOfChambers": 1,
        "lengthM_attr": 427,
        "widthM_attr": 55,
        "rotation": 142,
        "rwsId": 43026503,
        "isrsId": 43026548,
        "vinCode": "65146045",
        "address": "Buitenhaven",
        "relatedComplex": "Noordzeesluizen",
        "centroid": {
          "lng": 3.81876,
          "lat": 51.32982
        },
        "rwsCollection": "sluis_v",
        "_source": "rws_fis",
        "_retrievedAt": "2026-09-14T08:58:37Z"
      },
      "geometry": {
        "type": "Polygon",
        "coordinates": [
          [
            [
              3.8182,
              51.3312
            ],
            [
              3.8203,
              51.3279
            ],
            [
              3.8196,
              51.3277
            ],
            [
              3.8175,
              51.3311
            ],
            [
              3.8182,
              51.3312
            ]
          ]
        ]
      }
    }
  ],
  "verification": "Exactly three CONSTRUCTED locks. No Middensluis feature in sluis_v inside the Noordzeesluizen bbox."
}
