{
  "type": "FeatureCollection",
  "name": "lock-structure-parts-bgt",
  "groundTruth": true,
  "crs": {
    "type": "name",
    "properties": {
      "name": "urn:ogc:def:crs:OGC:1.3:CRS84"
    }
  },
  "source": {
    "name": "Basisregistratie Grootschalige Topografie (PDOK OGC API Features)",
    "url": "https://api.pdok.nl/lv/bgt/ogc/v1",
    "license": "CC0 1.0",
    "retrievedAt": "2026-09-14T08:58:37Z",
    "datetimeFilter": "2026-09-14T08:58:37Z",
    "note": "Current objects only (status=bestaand, no eind_registratie). waterdeel, overbruggingsdeel, kunstwerkdeel_vlak, wegdeel."
  },
  "generatedAt": "2026-09-14T08:58:37Z",
  "featureCount": 27,
  "features": [
    {
      "type": "Feature",
      "properties": {
        "kind": "lock-structure-part",
        "bgtType": "sluis",
        "bgtLokaalId": "L0002.0c7279dcac6f483b80e3d949c6e9ea6d",
        "measuredMinRectM": {
          "long_m": 44.1,
          "short_m": 7.6
        },
        "centroid": {
          "lng": 3.81587,
          "lat": 51.32988
        },
        "note": "BGT lock parts (heads/gates). Full chamber footprints are RWS sluiskolk_v, not these fragments.",
        "_source": "bgt",
        "_retrievedAt": "2026-09-14T08:58:37Z"
      },
      "geometry": {
        "type": "MultiPolygon",
        "coordinates": [
          [
            [
              [
                3.8161634389499097,
                51.329935269278025
              ],
              [
                3.8161716065553732,
                51.32993770791325
              ],
              [
                3.8161254244170952,
                51.32999540409361
              ],
              [
                3.816117171050694,
                51.329992955308086
              ],
              [
                3.815595834250295,
                51.32983030121859
              ],
              [
                3.8155601642833337,
                51.32981931033864
              ],
              [
                3.815559454209225,
                51.329819093982046
              ],
              [
                3.815605425920018,
                51.329760855771106
              ],
              [
                3.815642135473232,
                51.32977291251584
              ],
              [
                3.8161634389499097,
                51.329935269278025
              ]
            ]
          ]
        ]
      }
    },
    {
      "type": "Feature",
      "properties": {
        "kind": "lock-structure-part",
        "bgtType": "sluis",
        "bgtLokaalId": "L0002.22ed5d5a134c41898e3e9c3046453d8f",
        "measuredMinRectM": {
          "long_m": 14.7,
          "short_m": 1.8
        },
        "centroid": {
          "lng": 3.819914,
          "lat": 51.334812
        },
        "note": "BGT lock parts (heads/gates). Full chamber footprints are RWS sluiskolk_v, not these fragments.",
        "_source": "bgt",
        "_retrievedAt": "2026-09-14T08:58:37Z"
      },
      "geometry": {
        "type": "MultiPolygon",
        "coordinates": [
          [
            [
              [
                3.819874446730613,
                51.3348154138366
              ],
              [
                3.8198758100531394,
                51.334812905949626
              ],
              [
                3.8198795489931507,
                51.33481101439225
              ],
              [
                3.819885746092531,
                51.33481026170408
              ],
              [
                3.8198884210510364,
                51.33480926383379
              ],
              [
                3.8198925932591647,
                51.33480687465795
              ],
              [
                3.819897997365212,
                51.334806228169604
              ],
              [
                3.8200475998510868,
                51.33478951480697
              ],
              [
                3.820079775661428,
                51.33478577632478
              ],
              [
                3.8200756272771197,
                51.33480128246416
              ],
              [
                3.819892410728082,
                51.33482265891452
              ],
              [
                3.8198898761094147,
                51.33482291249052
              ],
              [
                3.819886474922702,
                51.334823325217826
              ],
              [
                3.8198822370614,
                51.3348230254535
              ],
              [
                3.8198780568596136,
                51.33482188139036
              ],
              [
                3.819875690765551,
                51.33482015040961
              ],
              [
                3.8198749114130326,
                51.33481776652057
              ],
              [
                3.819874446730613,
                51.3348154138366
              ]
            ]
          ]
        ]
      }
    },
    {
      "type": "Feature",
      "properties": {
        "kind": "lock-structure-part",
        "bgtType": "sluis",
        "bgtLokaalId": "L0002.2cbe6008f40d4cc0acb338d4d2673e0d",
        "measuredMinRectM": {
          "long_m": 14.3,
          "short_m": 0.6
        },
        "centroid": {
          "lng": 3.817758,
          "lat": 51.327046
        },
        "note": "BGT lock parts (heads/gates). Full chamber footprints are RWS sluiskolk_v, not these fragments.",
        "_source": "bgt",
        "_retrievedAt": "2026-09-14T08:58:37Z"
      },
      "geometry": {
        "type": "MultiPolygon",
        "coordinates": [
          [
            [
              [
                3.8177240388020484,
                51.327092891233626
              ],
              [
                3.8177180649792404,
                51.3270909317778
              ],
              [
                3.8178080460029933,
                51.32697528134193
              ],
              [
                3.8178151302181282,
                51.32697749849197
              ],
              [
                3.8177240388020484,
                51.327092891233626
              ]
            ]
          ]
        ]
      }
    },
    {
      "type": "Feature",
      "properties": {
        "kind": "lock-structure-part",
        "bgtType": "sluis",
        "bgtLokaalId": "L0002.319c224636e842869660835a74ff24db",
        "measuredMinRectM": {
          "long_m": 14.7,
          "short_m": 1.8
        },
        "centroid": {
          "lng": 3.819905,
          "lat": 51.334892
        },
        "note": "BGT lock parts (heads/gates). Full chamber footprints are RWS sluiskolk_v, not these fragments.",
        "_source": "bgt",
        "_retrievedAt": "2026-09-14T08:58:37Z"
      },
      "geometry": {
        "type": "MultiPolygon",
        "coordinates": [
          [
            [
              [
                3.820046122918688,
                51.33492800625381
              ],
              [
                3.8200427905101724,
                51.334943990859884
              ],
              [
                3.8200135705973293,
                51.334934769343526
              ],
              [
                3.819877355053516,
                51.334892561538254
              ],
              [
                3.8198724574151335,
                51.334890994273024
              ],
              [
                3.8198695185430656,
                51.334887969991875
              ],
              [
                3.8198674004899953,
                51.33488653902411
              ],
              [
                3.819861778950536,
                51.334884737262705
              ],
              [
                3.8198590364586793,
                51.33488226402351
              ],
              [
                3.8198582429002785,
                51.33487945740587
              ],
              [
                3.8198597407113173,
                51.33487637595901
              ],
              [
                3.8198623121465753,
                51.33487463051328
              ],
              [
                3.8198653946311913,
                51.33487346731483
              ],
              [
                3.8198674863999047,
                51.33487315383877
              ],
              [
                3.819870207986393,
                51.33487330733631
              ],
              [
                3.8198744461899334,
                51.3348744341999
              ],
              [
                3.8198789660591292,
                51.33487571768647
              ],
              [
                3.820046122918688,
                51.33492800625381
              ]
            ]
          ]
        ]
      }
    },
    {
      "type": "Feature",
      "properties": {
        "kind": "lock-structure-part",
        "bgtType": "sluis",
        "bgtLokaalId": "L0002.3713af7e1aa541c1a53c0644d11a286d",
        "measuredMinRectM": {
          "long_m": 14.4,
          "short_m": 1.9
        },
        "centroid": {
          "lng": 3.820204,
          "lat": 51.334916
        },
        "note": "BGT lock parts (heads/gates). Full chamber footprints are RWS sluiskolk_v, not these fragments.",
        "_source": "bgt",
        "_retrievedAt": "2026-09-14T08:58:37Z"
      },
      "geometry": {
        "type": "MultiPolygon",
        "coordinates": [
          [
            [
              [
                3.820046122918688,
                51.33492800625381
              ],
              [
                3.8202233316672953,
                51.33490731289064
              ],
              [
                3.8202268931198566,
                51.33490683038853
              ],
              [
                3.820228738861849,
                51.334906576526954
              ],
              [
                3.8202336038822793,
                51.33490616550415
              ],
              [
                3.8202370998067963,
                51.33490633840138
              ],
              [
                3.820239842556429,
                51.33490713047598
              ],
              [
                3.820242208188564,
                51.33490845688594
              ],
              [
                3.8202437589876577,
                51.33491136359039
              ],
              [
                3.820243518616475,
                51.334913769717836
              ],
              [
                3.820242117341017,
                51.33491571071855
              ],
              [
                3.8202395499232904,
                51.33491733935464
              ],
              [
                3.820236524962096,
                51.33491808079955
              ],
              [
                3.820231660728706,
                51.334918887399915
              ],
              [
                3.820229586866852,
                51.334919515778864
              ],
              [
                3.820227693194732,
                51.33492074892248
              ],
              [
                3.820224209801583,
                51.33492146621889
              ],
              [
                3.8200427905101724,
                51.334943990859884
              ],
              [
                3.820046122918688,
                51.33492800625381
              ]
            ]
          ]
        ]
      }
    },
    {
      "type": "Feature",
      "properties": {
        "kind": "lock-structure-part",
        "bgtType": "sluis",
        "bgtLokaalId": "L0002.455ac05d4805427586f85f6c93368cc9",
        "measuredMinRectM": {
          "long_m": 14.7,
          "short_m": 1.8
        },
        "centroid": {
          "lng": 3.819613,
          "lat": 51.336165
        },
        "note": "BGT lock parts (heads/gates). Full chamber footprints are RWS sluiskolk_v, not these fragments.",
        "_source": "bgt",
        "_retrievedAt": "2026-09-14T08:58:37Z"
      },
      "geometry": {
        "type": "MultiPolygon",
        "coordinates": [
          [
            [
              [
                3.8197489144501033,
                51.33621499299159
              ],
              [
                3.819719693787407,
                51.336205771398895
              ],
              [
                3.8195834747427293,
                51.33616356323758
              ],
              [
                3.8195785769788078,
                51.33616199595955
              ],
              [
                3.819575638045428,
                51.33615897167093
              ],
              [
                3.8195735199431358,
                51.33615754069768
              ],
              [
                3.8195678982595984,
                51.33615573892159
              ],
              [
                3.8195651557081804,
                51.336153265675385
              ],
              [
                3.8195649612720546,
                51.336150566011675
              ],
              [
                3.8195665578811755,
                51.33614795338603
              ],
              [
                3.8195687277221757,
                51.33614620254075
              ],
              [
                3.8195713496990895,
                51.33614507810175
              ],
              [
                3.819575869637395,
                51.336144689430924
              ],
              [
                3.819580045304522,
                51.33614513221067
              ],
              [
                3.819583552608112,
                51.33614623126584
              ],
              [
                3.819750834096902,
                51.33619919615338
              ],
              [
                3.8197489144501033,
                51.33621499299159
              ]
            ]
          ]
        ]
      }
    },
    {
      "type": "Feature",
      "properties": {
        "kind": "lock-structure-part",
        "bgtType": "sluis",
        "bgtLokaalId": "L0002.51bb7e3021ef4c58a5a1fc4bc20b2b1d",
        "measuredMinRectM": {
          "long_m": 44.1,
          "short_m": 7.8
        },
        "centroid": {
          "lng": 3.818163,
          "lat": 51.326951
        },
        "note": "BGT lock parts (heads/gates). Full chamber footprints are RWS sluiskolk_v, not these fragments.",
        "_source": "bgt",
        "_retrievedAt": "2026-09-14T08:58:37Z"
      },
      "geometry": {
        "type": "MultiPolygon",
        "coordinates": [
          [
            [
              [
                3.817958697457821,
                51.32685372377624
              ],
              [
                3.8184789185806816,
                51.32701552541926
              ],
              [
                3.818490120601399,
                51.32701901167028
              ],
              [
                3.8184423065309807,
                51.32707927590482
              ],
              [
                3.818431417264627,
                51.32707587477395
              ],
              [
                3.8179119403716304,
                51.32691369637611
              ],
              [
                3.817875840133234,
                51.326902331793335
              ],
              [
                3.817922678527017,
                51.32684291769332
              ],
              [
                3.817958697457821,
                51.32685372377624
              ]
            ]
          ]
        ]
      }
    },
    {
      "type": "Feature",
      "properties": {
        "kind": "lock-structure-part",
        "bgtType": "sluis",
        "bgtLokaalId": "L0002.7a9045e8af5c44049963dd3f71ba200d",
        "measuredMinRectM": {
          "long_m": 14.4,
          "short_m": 1.8
        },
        "centroid": {
          "lng": 3.820546,
          "lat": 51.333272
        },
        "note": "BGT lock parts (heads/gates). Full chamber footprints are RWS sluiskolk_v, not these fragments.",
        "_source": "bgt",
        "_retrievedAt": "2026-09-14T08:58:37Z"
      },
      "geometry": {
        "type": "MultiPolygon",
        "coordinates": [
          [
            [
              [
                3.820438678465065,
                51.33323038165347
              ],
              [
                3.820461904728637,
                51.33323732884501
              ],
              [
                3.8205092707599237,
                51.333252206439326
              ],
              [
                3.820606828297683,
                51.333283689725
              ],
              [
                3.8206130034816908,
                51.33328691934381
              ],
              [
                3.8206173624298905,
                51.333289962708776
              ],
              [
                3.8206189895864875,
                51.3332935716679
              ],
              [
                3.8206171116562246,
                51.333296441237124
              ],
              [
                3.820612335605413,
                51.33329886726576
              ],
              [
                3.820605144712947,
                51.33329847386325
              ],
              [
                3.820600854537411,
                51.33329802957762
              ],
              [
                3.8205781669855785,
                51.33329085591686
              ],
              [
                3.820439829001393,
                51.333247055888755
              ],
              [
                3.8204345307912773,
                51.33324545628632
              ],
              [
                3.820438678465065,
                51.33323038165347
              ]
            ]
          ]
        ]
      }
    },
    {
      "type": "Feature",
      "properties": {
        "kind": "lock-structure-part",
        "bgtType": "sluis",
        "bgtLokaalId": "L0002.816d3e52b7d642ebb37156b98dcbe0be",
        "measuredMinRectM": {
          "long_m": 13.0,
          "short_m": 0.6
        },
        "centroid": {
          "lng": 3.815869,
          "lat": 51.329425
        },
        "note": "BGT lock parts (heads/gates). Full chamber footprints are RWS sluiskolk_v, not these fragments.",
        "_source": "bgt",
        "_retrievedAt": "2026-09-14T08:58:37Z"
      },
      "geometry": {
        "type": "MultiPolygon",
        "coordinates": [
          [
            [
              [
                3.8159046482717307,
                51.32938376437343
              ],
              [
                3.815821480337544,
                51.32948837552267
              ],
              [
                3.8158148062336363,
                51.32948632561103
              ],
              [
                3.8158984357753294,
                51.329382062320995
              ],
              [
                3.8159046482717307,
                51.32938376437343
              ]
            ]
          ]
        ]
      }
    },
    {
      "type": "Feature",
      "properties": {
        "kind": "lock-structure-part",
        "bgtType": "sluis",
        "bgtLokaalId": "L0002.91cf8f6e01df4a969303e78c459ce085",
        "measuredMinRectM": {
          "long_m": 14.7,
          "short_m": 1.6
        },
        "centroid": {
          "lng": 3.820282,
          "lat": 51.333256
        },
        "note": "BGT lock parts (heads/gates). Full chamber footprints are RWS sluiskolk_v, not these fragments.",
        "_source": "bgt",
        "_retrievedAt": "2026-09-14T08:58:37Z"
      },
      "geometry": {
        "type": "MultiPolygon",
        "coordinates": [
          [
            [
              [
                3.820438678465065,
                51.33323038165347
              ],
              [
                3.8204345307912773,
                51.33324545628632
              ],
              [
                3.8202467270841933,
                51.33326644788006
              ],
              [
                3.820242373066379,
                51.33326619151546
              ],
              [
                3.8202411468144786,
                51.333265959253076
              ],
              [
                3.820239437771544,
                51.33326557665247
              ],
              [
                3.82023705004104,
                51.33326489723541
              ],
              [
                3.8202341307310568,
                51.333262979014854
              ],
              [
                3.820232374059505,
                51.33325979983494
              ],
              [
                3.8202335729172767,
                51.33325790106202
              ],
              [
                3.8202357811430057,
                51.33325586303706
              ],
              [
                3.820239674959219,
                51.333254054464504
              ],
              [
                3.820252710674464,
                51.3332522430292
              ],
              [
                3.820438678465065,
                51.33323038165347
              ]
            ]
          ]
        ]
      }
    },
    {
      "type": "Feature",
      "properties": {
        "kind": "lock-structure-part",
        "bgtType": "sluis",
        "bgtLokaalId": "L0002.99fa349c38e1483d92e49518cc9cc182",
        "measuredMinRectM": {
          "long_m": 14.7,
          "short_m": 1.8
        },
        "centroid": {
          "lng": 3.819676,
          "lat": 51.335886
        },
        "note": "BGT lock parts (heads/gates). Full chamber footprints are RWS sluiskolk_v, not these fragments.",
        "_source": "bgt",
        "_retrievedAt": "2026-09-14T08:58:37Z"
      },
      "geometry": {
        "type": "MultiPolygon",
        "coordinates": [
          [
            [
              [
                3.819828858869146,
                51.335861748877036
              ],
              [
                3.819823662765563,
                51.33587724989886
              ],
              [
                3.819638319734239,
                51.33589898394884
              ],
              [
                3.8196355677135956,
                51.335899297524946
              ],
              [
                3.8196317658355667,
                51.3358992553448
              ],
              [
                3.8196280268632767,
                51.3358982161039
              ],
              [
                3.819625284490379,
                51.335896156408516
              ],
              [
                3.819624076166286,
                51.335894144330794
              ],
              [
                3.8196239391097935,
                51.33589144543948
              ],
              [
                3.8196253990321973,
                51.33588863318999
              ],
              [
                3.819629064043866,
                51.33588722611325
              ],
              [
                3.8196348245957483,
                51.335886233817405
              ],
              [
                3.819637269027871,
                51.335885682357386
              ],
              [
                3.8196416719428887,
                51.33588284678692
              ],
              [
                3.8196470761797605,
                51.33588220031082
              ],
              [
                3.8197966822805087,
                51.335865487286476
              ],
              [
                3.819828858869146,
                51.335861748877036
              ]
            ]
          ]
        ]
      }
    },
    {
      "type": "Feature",
      "properties": {
        "kind": "lock-structure-part",
        "bgtType": "sluis",
        "bgtLokaalId": "L0002.9a6b93b111eb4dfbba1740c79bfda500",
        "measuredMinRectM": {
          "long_m": 14.3,
          "short_m": 0.5
        },
        "centroid": {
          "lng": 3.817887,
          "lat": 51.326882
        },
        "note": "BGT lock parts (heads/gates). Full chamber footprints are RWS sluiskolk_v, not these fragments.",
        "_source": "bgt",
        "_retrievedAt": "2026-09-14T08:58:37Z"
      },
      "geometry": {
        "type": "MultiPolygon",
        "coordinates": [
          [
            [
              [
                3.8178532586508314,
                51.32692895301509
              ],
              [
                3.8178472530732144,
                51.32692708303947
              ],
              [
                3.8179377076783023,
                51.32681141192033
              ],
              [
                3.8179442804736556,
                51.326813478328404
              ],
              [
                3.8178532586508314,
                51.32692895301509
              ]
            ]
          ]
        ]
      }
    },
    {
      "type": "Feature",
      "properties": {
        "kind": "lock-structure-part",
        "bgtType": "sluis",
        "bgtLokaalId": "L0002.a91100031f1d4562be1d85b2da592ad2",
        "measuredMinRectM": {
          "long_m": 44.0,
          "short_m": 7.6
        },
        "centroid": {
          "lng": 3.816123,
          "lat": 51.329514
        },
        "note": "BGT lock parts (heads/gates). Full chamber footprints are RWS sluiskolk_v, not these fragments.",
        "_source": "bgt",
        "_retrievedAt": "2026-09-14T08:58:37Z"
      },
      "geometry": {
        "type": "MultiPolygon",
        "coordinates": [
          [
            [
              [
                3.815845840973994,
                51.32945974690402
              ],
              [
                3.815891722629067,
                51.3294020198102
              ],
              [
                3.815927535169349,
                51.329413030495076
              ],
              [
                3.816448511857268,
                51.32957520179965
              ],
              [
                3.816457131752098,
                51.329578257846904
              ],
              [
                3.816409861603528,
                51.32963631704624
              ],
              [
                3.816401608286304,
                51.32963386828104
              ],
              [
                3.815881483412779,
                51.32947111491411
              ],
              [
                3.815845840973994,
                51.32945974690402
              ]
            ]
          ]
        ]
      }
    },
    {
      "type": "Feature",
      "properties": {
        "kind": "lock-structure-part",
        "bgtType": "sluis",
        "bgtLokaalId": "L0002.acd0f401a9714264b08e2fe79e07402c",
        "measuredMinRectM": {
          "long_m": 14.7,
          "short_m": 1.8
        },
        "centroid": {
          "lng": 3.820258,
          "lat": 51.333332
        },
        "note": "BGT lock parts (heads/gates). Full chamber footprints are RWS sluiskolk_v, not these fragments.",
        "_source": "bgt",
        "_retrievedAt": "2026-09-14T08:58:37Z"
      },
      "geometry": {
        "type": "MultiPolygon",
        "coordinates": [
          [
            [
              [
                3.8202350622499814,
                51.33331701339179
              ],
              [
                3.8204057047586124,
                51.33337045418233
              ],
              [
                3.8204028163191284,
                51.33338563565633
              ],
              [
                3.8202343863729507,
                51.33333170320217
              ],
              [
                3.820222699711503,
                51.33332765322514
              ],
              [
                3.8202197836151552,
                51.3333252226086
              ],
              [
                3.8202185867313285,
                51.33332287805459
              ],
              [
                3.820218127591402,
                51.33332036362365
              ],
              [
                3.8202215464607825,
                51.3333177575277
              ],
              [
                3.8202273068115766,
                51.33331634266554
              ],
              [
                3.8202350622499814,
                51.33331701339179
              ]
            ]
          ]
        ]
      }
    },
    {
      "type": "Feature",
      "properties": {
        "kind": "lock-structure-part",
        "bgtType": "sluis",
        "bgtLokaalId": "L0002.ae5cc2dff9814e60b81c3958dc9b94e9",
        "measuredMinRectM": {
          "long_m": 14.5,
          "short_m": 1.7
        },
        "centroid": {
          "lng": 3.820525,
          "lat": 51.333364
        },
        "note": "BGT lock parts (heads/gates). Full chamber footprints are RWS sluiskolk_v, not these fragments.",
        "_source": "bgt",
        "_retrievedAt": "2026-09-14T08:58:37Z"
      },
      "geometry": {
        "type": "MultiPolygon",
        "coordinates": [
          [
            [
              [
                3.8204057047586124,
                51.33337045418233
              ],
              [
                3.8204115088004578,
                51.33336985800294
              ],
              [
                3.8205639740740733,
                51.33335238241061
              ],
              [
                3.820590153075566,
                51.3333493902235
              ],
              [
                3.820594251537571,
                51.33334998476325
              ],
              [
                3.820601410843821,
                51.33335088119015
              ],
              [
                3.820605130619513,
                51.333354149701776
              ],
              [
                3.820604536453534,
                51.333356829765656
              ],
              [
                3.820600687478893,
                51.333360679718616
              ],
              [
                3.8205956076734084,
                51.333362337497555
              ],
              [
                3.8205882200774206,
                51.33336433282934
              ],
              [
                3.820480429658115,
                51.333377231119705
              ],
              [
                3.8204282764374287,
                51.33338310132214
              ],
              [
                3.8204028163191284,
                51.33338563565633
              ],
              [
                3.8204057047586124,
                51.33337045418233
              ]
            ]
          ]
        ]
      }
    },
    {
      "type": "Feature",
      "properties": {
        "kind": "lock-structure-part",
        "bgtType": "sluis",
        "bgtLokaalId": "L0002.b2ffa5b8a6304336abe7956bfe83266d",
        "measuredMinRectM": {
          "long_m": 1.3,
          "short_m": 0.5
        },
        "centroid": {
          "lng": 3.815906,
          "lat": 51.329379
        },
        "note": "BGT lock parts (heads/gates). Full chamber footprints are RWS sluiskolk_v, not these fragments.",
        "_source": "bgt",
        "_retrievedAt": "2026-09-14T08:58:37Z"
      },
      "geometry": {
        "type": "MultiPolygon",
        "coordinates": [
          [
            [
              [
                3.8159046482717307,
                51.32938376437343
              ],
              [
                3.8158984357753294,
                51.329382062320995
              ],
              [
                3.815906922101609,
                51.32937146953738
              ],
              [
                3.8159129815858295,
                51.32937344821996
              ],
              [
                3.8159046482717307,
                51.32938376437343
              ]
            ]
          ]
        ]
      }
    },
    {
      "type": "Feature",
      "properties": {
        "kind": "lock-structure-part",
        "bgtType": "sluis",
        "bgtLokaalId": "L0002.bab572bf872e4568acf41ec9d39be6dc",
        "measuredMinRectM": {
          "long_m": 14.3,
          "short_m": 0.6
        },
        "centroid": {
          "lng": 3.81557,
          "lat": 51.3298
        },
        "note": "BGT lock parts (heads/gates). Full chamber footprints are RWS sluiskolk_v, not these fragments.",
        "_source": "bgt",
        "_retrievedAt": "2026-09-14T08:58:37Z"
      },
      "geometry": {
        "type": "MultiPolygon",
        "coordinates": [
          [
            [
              [
                3.8155358506801904,
                51.32984697758757
              ],
              [
                3.815529470646352,
                51.32984513840241
              ],
              [
                3.8156209729104362,
                51.32972980677373
              ],
              [
                3.8156268643230282,
                51.32973166633059
              ],
              [
                3.8155358506801904,
                51.32984697758757
              ]
            ]
          ]
        ]
      }
    },
    {
      "type": "Feature",
      "properties": {
        "kind": "lock-structure-part",
        "bgtType": "sluis",
        "bgtLokaalId": "L0002.c5a59693634649b4a6f4b9ec01492bb2",
        "measuredMinRectM": {
          "long_m": 14.4,
          "short_m": 1.8
        },
        "centroid": {
          "lng": 3.81998,
          "lat": 51.335919
        },
        "note": "BGT lock parts (heads/gates). Full chamber footprints are RWS sluiskolk_v, not these fragments.",
        "_source": "bgt",
        "_retrievedAt": "2026-09-14T08:58:37Z"
      },
      "geometry": {
        "type": "MultiPolygon",
        "coordinates": [
          [
            [
              [
                3.8199888563298607,
                51.33592955704235
              ],
              [
                3.819823662765563,
                51.33587724989886
              ],
              [
                3.819828858869146,
                51.335861748877036
              ],
              [
                3.819993026176603,
                51.33591510304253
              ],
              [
                3.8199960529815313,
                51.33591640239327
              ],
              [
                3.8199973213084992,
                51.33591792081586
              ],
              [
                3.8199990250711724,
                51.33591887871794
              ],
              [
                3.820003346536203,
                51.33592051014494
              ],
              [
                3.820006876530657,
                51.33592220284295
              ],
              [
                3.8200084192727046,
                51.33592367101704
              ],
              [
                3.820008951970749,
                51.33592529641289
              ],
              [
                3.8200079524994255,
                51.335927656364866
              ],
              [
                3.820005037056454,
                51.33593022427951
              ],
              [
                3.8200016458510553,
                51.33593159909177
              ],
              [
                3.8199994602571774,
                51.33593213606205
              ],
              [
                3.8199952552978105,
                51.335931710883386
              ],
              [
                3.8199907289880093,
                51.33593019357167
              ],
              [
                3.8199888563298607,
                51.33592955704235
              ]
            ]
          ]
        ]
      }
    },
    {
      "type": "Feature",
      "properties": {
        "kind": "lock-structure-part",
        "bgtType": "sluis",
        "bgtLokaalId": "L0002.d7c7b9c7e5434de29ff58e69c1cb2eaf",
        "measuredMinRectM": {
          "long_m": 14.4,
          "short_m": 1.8
        },
        "centroid": {
          "lng": 3.820222,
          "lat": 51.334839
        },
        "note": "BGT lock parts (heads/gates). Full chamber footprints are RWS sluiskolk_v, not these fragments.",
        "_source": "bgt",
        "_retrievedAt": "2026-09-14T08:58:37Z"
      },
      "geometry": {
        "type": "MultiPolygon",
        "coordinates": [
          [
            [
              [
                3.820079775661428,
                51.33478577632478
              ],
              [
                3.82024393941384,
                51.33483913012423
              ],
              [
                3.8202469661550342,
                51.33484042946819
              ],
              [
                3.8202482344608892,
                51.33484194788806
              ],
              [
                3.8202499381889883,
                51.33484290578639
              ],
              [
                3.82025425956174,
                51.334844537203736
              ],
              [
                3.8202577894828833,
                51.33484622989393
              ],
              [
                3.820259332197073,
                51.33484769806467
              ],
              [
                3.820259864891921,
                51.3348493234594
              ],
              [
                3.8202588654576575,
                51.3348516834138
              ],
              [
                3.820255950098007,
                51.33485425133524
              ],
              [
                3.820252558980266,
                51.33485562615523
              ],
              [
                3.820250373440878,
                51.33485616313044
              ],
              [
                3.8202461685779765,
                51.33485573796124
              ],
              [
                3.820241642365928,
                51.33485422065965
              ],
              [
                3.8202377695640304,
                51.33485290094223
              ],
              [
                3.8200756272771197,
                51.33480128246416
              ],
              [
                3.820079775661428,
                51.33478577632478
              ]
            ]
          ]
        ]
      }
    },
    {
      "type": "Feature",
      "properties": {
        "kind": "lock-structure-part",
        "bgtType": "sluis",
        "bgtLokaalId": "L0002.dee4ac51429e4666b8b6b67956e512d7",
        "measuredMinRectM": {
          "long_m": 44.1,
          "short_m": 7.8
        },
        "centroid": {
          "lng": 3.817258,
          "lat": 51.328085
        },
        "note": "BGT lock parts (heads/gates). Full chamber footprints are RWS sluiskolk_v, not these fragments.",
        "_source": "bgt",
        "_retrievedAt": "2026-09-14T08:58:37Z"
      },
      "geometry": {
        "type": "MultiPolygon",
        "coordinates": [
          [
            [
              [
                3.8169801705241992,
                51.328031361637485
              ],
              [
                3.817027059362691,
                51.32797221826407
              ],
              [
                3.817062035010069,
                51.327982920649056
              ],
              [
                3.817583758939086,
                51.3281455375907
              ],
              [
                3.8175938603017197,
                51.32814848766131
              ],
              [
                3.8175462139737597,
                51.32820839420142
              ],
              [
                3.8175365427463572,
                51.32820503637699
              ],
              [
                3.817015032982955,
                51.328042853644476
              ],
              [
                3.8169801705241992,
                51.328031361637485
              ]
            ]
          ]
        ]
      }
    },
    {
      "type": "Feature",
      "properties": {
        "kind": "lock-structure-part",
        "bgtType": "sluis",
        "bgtLokaalId": "L0002.f581a293374a41609c7f0a362a24d23c",
        "measuredMinRectM": {
          "long_m": 44.1,
          "short_m": 7.8
        },
        "centroid": {
          "lng": 3.81803,
          "lat": 51.327113
        },
        "note": "BGT lock parts (heads/gates). Full chamber footprints are RWS sluiskolk_v, not these fragments.",
        "_source": "bgt",
        "_retrievedAt": "2026-09-14T08:58:37Z"
      },
      "geometry": {
        "type": "MultiPolygon",
        "coordinates": [
          [
            [
              [
                3.817793724904626,
                51.32700622127126
              ],
              [
                3.8178285402184566,
                51.327017397749465
              ],
              [
                3.8183502031794947,
                51.327179039581154
              ],
              [
                3.818360610668715,
                51.32718226341589
              ],
              [
                3.8183129458517175,
                51.32724234980756
              ],
              [
                3.8183027382264996,
                51.327239155631865
              ],
              [
                3.8177819027866793,
                51.32707638299452
              ],
              [
                3.817746886174183,
                51.32706563531756
              ],
              [
                3.817793724904626,
                51.32700622127126
              ]
            ]
          ]
        ]
      }
    },
    {
      "type": "Feature",
      "properties": {
        "kind": "lock-structure-part",
        "bgtType": "sluis",
        "bgtLokaalId": "L0002.650cdec6ecd245c38db28da12ce9911d",
        "measuredMinRectM": {
          "long_m": 14.3,
          "short_m": 0.5
        },
        "centroid": {
          "lng": 3.81699,
          "lat": 51.328012
        },
        "note": "BGT lock parts (heads/gates). Full chamber footprints are RWS sluiskolk_v, not these fragments.",
        "_source": "bgt",
        "_retrievedAt": "2026-09-14T08:58:37Z"
      },
      "geometry": {
        "type": "MultiPolygon",
        "coordinates": [
          [
            [
              [
                3.8169511977389434,
                51.328057698731506
              ],
              [
                3.817041659032841,
                51.32794196543103
              ],
              [
                3.817047906072145,
                51.327943910624164
              ],
              [
                3.816956453122942,
                51.32805927095151
              ],
              [
                3.8169511977389434,
                51.328057698731506
              ]
            ]
          ]
        ]
      }
    },
    {
      "type": "Feature",
      "properties": {
        "kind": "lock-structure-part",
        "bgtType": "sluis",
        "bgtLokaalId": "L0002.7aa2ac977549449a9e617291e5f75118",
        "measuredMinRectM": {
          "long_m": 64.5,
          "short_m": 10.3
        },
        "centroid": {
          "lng": 3.820166,
          "lat": 51.327575
        },
        "note": "BGT lock parts (heads/gates). Full chamber footprints are RWS sluiskolk_v, not these fragments.",
        "_source": "bgt",
        "_retrievedAt": "2026-09-14T08:58:37Z"
      },
      "geometry": {
        "type": "MultiPolygon",
        "coordinates": [
          [
            [
              [
                3.8205769266336906,
                51.32772310987719
              ],
              [
                3.820509264111658,
                51.32770648481403
              ],
              [
                3.8205109572044957,
                51.327703558820296
              ],
              [
                3.820469894335616,
                51.327693764498385
              ],
              [
                3.8201009846708964,
                51.32760324137996
              ],
              [
                3.8197320908208345,
                51.32751271729166
              ],
              [
                3.8197224415122935,
                51.327510393812126
              ],
              [
                3.8197173505059894,
                51.32750904868369
              ],
              [
                3.819741293822001,
                51.32747030872484
              ],
              [
                3.819763579908419,
                51.327434702000936
              ],
              [
                3.819765584716005,
                51.327431474547964
              ],
              [
                3.819770457013687,
                51.32743250207499
              ],
              [
                3.8197779497758373,
                51.327434526819495
              ],
              [
                3.8201479951794863,
                51.32752576749596
              ],
              [
                3.820518042379013,
                51.32761699801639
              ],
              [
                3.820559461167344,
                51.3276272915687
              ],
              [
                3.8205619476927843,
                51.32762340531136
              ],
              [
                3.820628928732877,
                51.32763981440377
              ],
              [
                3.8205769266336906,
                51.32772310987719
              ]
            ],
            [
              [
                3.8205231169634883,
                51.327679529896834
              ],
              [
                3.8205251794041404,
                51.32767922500755
              ],
              [
                3.8205265798693167,
                51.327678138059056
              ],
              [
                3.820534151873507,
                51.327666130185214
              ],
              [
                3.8205422756389438,
                51.32765309586584
              ],
              [
                3.8205420474728187,
                51.32765179821372
              ],
              [
                3.820541053761429,
                51.327651065632665
              ],
              [
                3.8205193501383965,
                51.32764582906321
              ],
              [
                3.8205175548042947,
                51.32764587683126
              ],
              [
                3.8205158577575946,
                51.32764682493733
              ],
              [
                3.8205078280514204,
                51.32765962677626
              ],
              [
                3.8205000273450715,
                51.327672027138455
              ],
              [
                3.8205006506453447,
                51.327673518899886
              ],
              [
                3.8205024676249653,
                51.327674514281505
              ],
              [
                3.8205231169634883,
                51.327679529896834
              ]
            ],
            [
              [
                3.8204090259497807,
                51.327628800805634
              ],
              [
                3.8203900140738605,
                51.32762415781695
              ],
              [
                3.8203865248395408,
                51.32762966678849
              ],
              [
                3.820382853632292,
                51.327635460996625
              ],
              [
                3.8204019585205202,
                51.32764032100162
              ],
              [
                3.8204055916251023,
                51.32763438243775
              ],
              [
                3.8204090259497807,
                51.327628800805634
              ]
            ],
            [
              [
                3.819847769494927,
                51.327496608617665
              ],
              [
                3.8198441873691436,
                51.32750231410676
              ],
              [
                3.8198632409343896,
                51.32750699370727
              ],
              [
                3.819866779721319,
                51.327501296624504
              ],
              [
                3.819870318815475,
                51.3274955905556
              ],
              [
                3.8198513678114496,
                51.32749084940546
              ],
              [
                3.819847769494927,
                51.327496608617665
              ]
            ]
          ]
        ]
      }
    },
    {
      "type": "Feature",
      "properties": {
        "kind": "lock-structure-part",
        "bgtType": "sluis",
        "bgtLokaalId": "L0002.adc8fd62785346d6aeb1fc56cd0da854",
        "measuredMinRectM": {
          "long_m": 64.5,
          "short_m": 10.3
        },
        "centroid": {
          "lng": 3.817882,
          "lat": 51.33122
        },
        "note": "BGT lock parts (heads/gates). Full chamber footprints are RWS sluiskolk_v, not these fragments.",
        "_source": "bgt",
        "_retrievedAt": "2026-09-14T08:58:37Z"
      },
      "geometry": {
        "type": "MultiPolygon",
        "coordinates": [
          [
            [
              [
                3.818235430855187,
                51.33126648803495
              ],
              [
                3.8182776394941924,
                51.33127768303829
              ],
              [
                3.8182801267235025,
                51.331273787845966
              ],
              [
                3.8183471122659136,
                51.33129019826716
              ],
              [
                3.8182951161389194,
                51.33137349286645
              ],
              [
                3.818227434727125,
                51.33135686626774
              ],
              [
                3.818229128103408,
                51.33135394030888
              ],
              [
                3.8181880624608984,
                51.331344145172245
              ],
              [
                3.817820849755016,
                51.33125404249427
              ],
              [
                3.8174536388160933,
                51.33116392967817
              ],
              [
                3.8174468952901037,
                51.331162220553544
              ],
              [
                3.8174354824095453,
                51.33115941462147
              ],
              [
                3.817459429599979,
                51.331120675154196
              ],
              [
                3.817481734539584,
                51.33108504212306
              ],
              [
                3.817483310423479,
                51.33108219550247
              ],
              [
                3.8174928693663186,
                51.33108466178588
              ],
              [
                3.8175009545922753,
                51.331086164238066
              ],
              [
                3.8178681918397714,
                51.331176331205654
              ],
              [
                3.818235430855187,
                51.33126648803495
              ]
            ],
            [
              [
                3.8182374411948437,
                51.33129655124242
              ],
              [
                3.818235645715291,
                51.33129659897469
              ],
              [
                3.8182339628293454,
                51.331297547239856
              ],
              [
                3.818226113525319,
                51.331310072666824
              ],
              [
                3.818218115531835,
                51.33132274892284
              ],
              [
                3.8182187534585887,
                51.331324231903416
              ],
              [
                3.818220570223937,
                51.33132523630682
              ],
              [
                3.8182412209527974,
                51.33133025233184
              ],
              [
                3.8182432838817073,
                51.331329938497795
              ],
              [
                3.818244684513645,
                51.33132885157756
              ],
              [
                3.818252410734385,
                51.331316567225464
              ],
              [
                3.8182603824968364,
                51.331303818692525
              ],
              [
                3.8182601400343326,
                51.33130252084308
              ],
              [
                3.81825914628098,
                51.33130178824251
              ],
              [
                3.8182374411948437,
                51.33129655124242
              ]
            ],
            [
              [
                3.8181062925503566,
                51.3312872775303
              ],
              [
                3.8181099964253633,
                51.3312813849378
              ],
              [
                3.818113361130505,
                51.33127575748031
              ],
              [
                3.8180943336346758,
                51.33127111391897
              ],
              [
                3.818090899675121,
                51.33127666852157
              ],
              [
                3.818087186389989,
                51.33128241714413
              ],
              [
                3.8181062925503566,
                51.3312872775303
              ]
            ],
            [
              [
                3.8175556510072606,
                51.331137803744184
              ],
              [
                3.817552109177758,
                51.3311435726414
              ],
              [
                3.817548483751943,
                51.33114926849054
              ],
              [
                3.817567524250399,
                51.33115394827801
              ],
              [
                3.8175710919894486,
                51.33114826064097
              ],
              [
                3.81757461792988,
                51.331142536479796
              ],
              [
                3.8175556510072606,
                51.331137803744184
              ]
            ]
          ]
        ]
      }
    },
    {
      "type": "Feature",
      "properties": {
        "kind": "lock-structure-part",
        "bgtType": "sluis",
        "bgtLokaalId": "L0002.b76e4e3a648e42588d39bba9ee5b99f4",
        "measuredMinRectM": {
          "long_m": 64.5,
          "short_m": 10.3
        },
        "centroid": {
          "lng": 3.817728,
          "lat": 51.331426
        },
        "note": "BGT lock parts (heads/gates). Full chamber footprints are RWS sluiskolk_v, not these fragments.",
        "_source": "bgt",
        "_retrievedAt": "2026-09-14T08:58:37Z"
      },
      "geometry": {
        "type": "MultiPolygon",
        "coordinates": [
          [
            [
              [
                3.818104994449663,
                51.33147682655423
              ],
              [
                3.8181463335023715,
                51.33148702096978
              ],
              [
                3.818148820445933,
                51.33148313476641
              ],
              [
                3.818215806246411,
                51.33149954526409
              ],
              [
                3.818163795294313,
                51.33158283960871
              ],
              [
                3.8180961279660903,
                51.33156621312598
              ],
              [
                3.8180978213586574,
                51.331563287169125
              ],
              [
                3.818056755557167,
                51.331553491985595
              ],
              [
                3.8176891061753886,
                51.33146352686512
              ],
              [
                3.817321472595614,
                51.33137356078306
              ],
              [
                3.8173110762502924,
                51.33137082248314
              ],
              [
                3.8173041752227066,
                51.33136910223724
              ],
              [
                3.8173060906105136,
                51.3313659815004
              ],
              [
                3.8173281056764807,
                51.331330020943476
              ],
              [
                3.8173504242402583,
                51.33129441508999
              ],
              [
                3.817352059367903,
                51.3312915153287
              ],
              [
                3.8173593564644945,
                51.33129340273368
              ],
              [
                3.8173704892820326,
                51.33129600711422
              ],
              [
                3.8177377339620797,
                51.33138641731374
              ],
              [
                3.818104994449663,
                51.33147682655423
              ]
            ],
            [
              [
                3.8174358027919477,
                51.331363180944834
              ],
              [
                3.8174393418757377,
                51.33135749292532
              ],
              [
                3.8174428962286373,
                51.331351778141105
              ],
              [
                3.8174239295419174,
                51.33134703639772
              ],
              [
                3.817420344647015,
                51.33135280471071
              ],
              [
                3.817416761911638,
                51.33135851012161
              ],
              [
                3.8174358027919477,
                51.331363180944834
              ]
            ],
            [
              [
                3.8181133043414297,
                51.3315382514059
              ],
              [
                3.8181210761338655,
                51.33152589575469
              ],
              [
                3.8181290024695405,
                51.33151321853941
              ],
              [
                3.8181287743538816,
                51.33151192088297
              ],
              [
                3.818127780598131,
                51.33151118828125
              ],
              [
                3.8181060757366194,
                51.33150594227041
              ],
              [
                3.818104280248726,
                51.3315059900006
              ],
              [
                3.8181025826996566,
                51.331506947056575
              ],
              [
                3.8180947644794925,
                51.33151940097279
              ],
              [
                3.8180867496002193,
                51.33153214891411
              ],
              [
                3.818087373181387,
                51.33153363170209
              ],
              [
                3.8180891899521003,
                51.331534636107584
              ],
              [
                3.81810984106916,
                51.331539643170174
              ],
              [
                3.8181119036999127,
                51.3315393383245
              ],
              [
                3.8181133043414297,
                51.3315382514059
              ]
            ],
            [
              [
                3.8179816414987013,
                51.33148499975845
              ],
              [
                3.8179626139296032,
                51.331480356175284
              ],
              [
                3.8179591659024625,
                51.331485901594526
              ],
              [
                3.8179554522749997,
                51.33149165919867
              ],
              [
                3.8179745728525134,
                51.3314965198
              ],
              [
                3.817978134554269,
                51.33149058933514
              ],
              [
                3.8179816414987013,
                51.33148499975845
              ]
            ]
          ]
        ]
      }
    },
    {
      "type": "Feature",
      "properties": {
        "kind": "lock-structure-part",
        "bgtType": "sluis",
        "bgtLokaalId": "L0002.e3bde7dbef4c4ea6b66de413a311f74b",
        "measuredMinRectM": {
          "long_m": 64.5,
          "short_m": 10.4
        },
        "centroid": {
          "lng": 3.820058,
          "lat": 51.327792
        },
        "note": "BGT lock parts (heads/gates). Full chamber footprints are RWS sluiskolk_v, not these fragments.",
        "_source": "bgt",
        "_retrievedAt": "2026-09-14T08:58:37Z"
      },
      "geometry": {
        "type": "MultiPolygon",
        "coordinates": [
          [
            [
              [
                3.82044573559612,
                51.327932218042484
              ],
              [
                3.820378058470848,
                51.32791559270918
              ],
              [
                3.820379765922995,
                51.32791266691048
              ],
              [
                3.820338702587317,
                51.32790288152772
              ],
              [
                3.819970228912801,
                51.327812993186214
              ],
              [
                3.819601756698074,
                51.32772310368457
              ],
              [
                3.8195925043327854,
                51.32772092039032
              ],
              [
                3.8195858722777967,
                51.327719320767805
              ],
              [
                3.8196103969057273,
                51.327679536810734
              ],
              [
                3.8196343905196715,
                51.32764059077588
              ],
              [
                3.8196431726348874,
                51.32764267783545
              ],
              [
                3.8196512772421807,
                51.32764485466623
              ],
              [
                3.82001906357791,
                51.32773548096927
              ],
              [
                3.820386851382506,
                51.32782610611648
              ],
              [
                3.8204282700217616,
                51.32783640870206
              ],
              [
                3.820430742534882,
                51.32783251326866
              ],
              [
                3.8204977378677123,
                51.32784893161646
              ],
              [
                3.82044573559612,
                51.327932218042484
              ]
            ],
            [
              [
                3.8204108457037336,
                51.32786122085107
              ],
              [
                3.8204098519899428,
                51.32786048826886
              ],
              [
                3.8203881485910394,
                51.32785524268862
              ],
              [
                3.820386353248595,
                51.327855290454686
              ],
              [
                3.820384655883352,
                51.32785624754476
              ],
              [
                3.8203767485479045,
                51.32786882626773
              ],
              [
                3.8203688253249197,
                51.32788144972724
              ],
              [
                3.8203694489317095,
                51.32788293250333
              ],
              [
                3.8203712656087037,
                51.32788393687301
              ],
              [
                3.820391915334965,
                51.32788894352588
              ],
              [
                3.8203939777859284,
                51.327888638638925
              ],
              [
                3.820395378260677,
                51.32788755169207
              ],
              [
                3.820403044093135,
                51.327875320334705
              ],
              [
                3.8204110738671124,
                51.32786251850339
              ],
              [
                3.8204108457037336,
                51.32786122085107
              ]
            ],
            [
              [
                3.8197387550739634,
                51.327704612022615
              ],
              [
                3.8197197896544126,
                51.327699870657746
              ],
              [
                3.8197161757290443,
                51.32770566561668
              ],
              [
                3.819712623488776,
                51.327711335543604
              ],
              [
                3.8197316771272205,
                51.32771601516591
              ],
              [
                3.819735185720279,
                51.32771036263127
              ],
              [
                3.8197387550739634,
                51.327704612022615
              ]
            ],
            [
              [
                3.820277464275261,
                51.32783782288874
              ],
              [
                3.820258437983202,
                51.327833179685335
              ],
              [
                3.8202548898045317,
                51.32783873281083
              ],
              [
                3.8202512918189115,
                51.327844483049496
              ],
              [
                3.820270396780047,
                51.32784934307634
              ],
              [
                3.820274014035349,
                51.32784344925385
              ],
              [
                3.820277464275261,
                51.32783782288874
              ]
            ]
          ]
        ]
      }
    },
    {
      "type": "Feature",
      "properties": {
        "kind": "lock-structure-part",
        "bgtType": "sluis",
        "bgtLokaalId": "L0002.bd06f41f62494351b6872b0ac51b44c3",
        "measuredMinRectM": {
          "long_m": 14.4,
          "short_m": 1.9
        },
        "centroid": {
          "lng": 3.819918,
          "lat": 51.336188
        },
        "note": "BGT lock parts (heads/gates). Full chamber footprints are RWS sluiskolk_v, not these fragments.",
        "_source": "bgt",
        "_retrievedAt": "2026-09-14T08:58:37Z"
      },
      "geometry": {
        "type": "MultiPolygon",
        "coordinates": [
          [
            [
              [
                3.8199495277165854,
                51.33618494157183
              ],
              [
                3.819948247009641,
                51.33618671337885
              ],
              [
                3.819945679509617,
                51.33618834200802
              ],
              [
                3.819942654459386,
                51.33618908344488
              ],
              [
                3.819937790085413,
                51.33618989003232
              ],
              [
                3.8199357161617074,
                51.336190518405765
              ],
              [
                3.8199338224286756,
                51.336191751544256
              ],
              [
                3.8199303389339123,
                51.336192468831435
              ],
              [
                3.8197489144501033,
                51.33621499299159
              ],
              [
                3.819750834096902,
                51.33619919615338
              ],
              [
                3.819931523082732,
                51.336178028597054
              ],
              [
                3.819934262621686,
                51.33617766090496
              ],
              [
                3.819943243744694,
                51.33617734124227
              ],
              [
                3.8199483379085133,
                51.33617945954708
              ],
              [
                3.8199497156283555,
                51.336181554812065
              ],
              [
                3.8199495277165854,
                51.33618494157183
              ]
            ]
          ]
        ]
      }
    }
  ]
}
